[{"OBJECT_NAME":"ONEWEB-0080","OBJECT_ID":"2020-020C","EPOCH":"2026-03-09T22:20:57.148800","MEAN_MOTION":13.11412701,"ECCENTRICITY":0.0002137,"INCLINATION":87.8863,"RA_OF_ASC_NODE":40.7981,"ARG_OF_PERICENTER":88.8299,"MEAN_ANOMALY":271.3074,"EPHEMERIS_TYPE":0,"CLASSIFICATION_TYPE":"U","NORAD_CAT_ID":45426,"ELEMENT_SET_NO":999,"REV_AT_EPOCH":28969,"BSTAR":-0.00089608248,"MEAN_MOTION_DOT":-3.05e-6,"MEAN_MOTION_DDOT":0},{"OBJECT_NAME":"COSMOS 2499 DEB","OBJECT_ID":"2014-028BM","EPOCH":"2026-03-08T05:03:49.574880","MEAN_MOTION":13.28374213,"ECCENTRICITY":0.02455059,"INCLINATION":82.2177,"RA_OF_ASC_NODE":240.5344,"ARG_OF_PERICENTER":17.6483,"MEAN_ANOMALY":343.2986,"EPHEMERIS_TYPE":0,"CLASSIFICATION_TYPE":"U","NORAD_CAT_ID":56578,"ELEMENT_SET_NO":999,"REV_AT_EPOCH":15036,"BSTAR":0.011993299,"MEAN_MOTION_DOT":6.456e-5,"MEAN_MOTION_DDOT":0}]
